NORAD_CAT_ID,OBJECT_NAME,OBJECT_TYPE,EPOCH,MEAN_MOTION,ECCENTRICITY,INCLINATION,RA_OF_ASC_NODE,ARG_OF_PERICENTER,MEAN_ANOMALY,BSTAR,MEAN_MOTION_DOT,MEAN_MOTION_DDOT,TLE_LINE0,TLE_LINE1,TLE_LINE2,SEMIMAJOR_AXIS,PERIOD,APOGEE,PERIGEE,DECAYED
50169.0,STARLINK-3301,PAYLOAD,2023-02-13 13:27:53,15.08833134,0.000112,53.2151,237.5693,95.266,264.846,3.0746e-05,2.01e-06,0.0,0 STARLINK-3301,1 50169U 21125P   23044.56104037  .00000201  00000-0  30746-4 0  9998,2 50169  53.2151 237.5693 0001120  95.2660 264.8460 15.08833134 64418,6917.901,95.438,540.541,538.992,0.0
50169.0,STARLINK-3301,PAYLOAD,2023-02-14 10:07:54,15.08836544,0.0001065,53.2152,233.7036,87.6995,272.4119,0.0001143,1.532e-05,0.0,0 STARLINK-3301,1 50169U 21125P   23045.42216259  .00001532  00000-0  11430-3 0  9990,2 50169  53.2152 233.7036 0001065  87.6995 272.4119 15.08836544 67633,6917.891,95.438,540.493,539.019,0.0
50169.0,STARLINK-3301,PAYLOAD,2023-02-14 14:54:04,15.0884115,0.0001031,53.2153,232.8117,88.4067,271.7043,8.1131e-05,1.004e-05,0.0,0 STARLINK-3301,1 50169U 21125P   23045.62088065  .00001004  00000-0  81131-4 0  9994,2 50169  53.2153 232.8117 0001031  88.4067 271.7043 15.08841150 64573,6917.877,95.437,540.455,539.029,0.0
50169.0,STARLINK-3301,PAYLOAD,2023-02-15 13:09:27,15.08838953,0.0001146,53.2146,228.648,87.3329,272.7794,0.00023851,3.51e-05,0.0,0 STARLINK-3301,1 50169U 21125P   23046.54823988  .00003510  00000-0  23851-3 0  9995,2 50169  53.2146 228.6480 0001146  87.3329 272.7794 15.08838953 67807,6917.884,95.438,540.541,538.956,0.0
50169.0,STARLINK-3301,PAYLOAD,2023-02-15 14:44:50,15.0884304,0.0001096,53.2144,228.3503,84.8878,275.2239,0.0001927,2.781e-05,0.0,0 STARLINK-3301,1 50169U 21125P   23046.61447744  .00002781  00000-0  19270-3 0  9994,2 50169  53.2144 228.3503 0001096  84.8878 275.2239 15.08843040 67819,6917.871,95.437,540.494,538.978,0.0
50169.0,STARLINK-3301,PAYLOAD,2023-02-16 05:03:18,15.08848955,0.0001154,53.2146,225.6741,75.8833,284.2287,0.00020634,2.998e-05,0.0,0 STARLINK-3301,1 50169U 21125P   23047.21063384  .00002998  00000-0  20634-3 0  9991,2 50169  53.2146 225.6741 0001154  75.8833 284.2287 15.08848955 64811,6917.853,95.437,540.516,538.92,0.0
50169.0,STARLINK-3301,PAYLOAD,2023-02-16 14:35:37,15.08841309,0.0001249,53.2139,223.8894,76.5505,283.5626,8.0357e-05,9.91e-06,0.0,0 STARLINK-3301,1 50169U 21125P   23047.60807809  .00000991  00000-0  80357-4 0  9992,2 50169  53.2139 223.8894 0001249  76.5505 283.5626 15.08841309 64872,6917.876,95.437,540.605,538.877,0.0
50169.0,STARLINK-3301,PAYLOAD,2023-02-16 20:57:10,15.08847694,0.0001178,53.2142,222.7015,78.5206,281.5919,0.00014266,1.984e-05,0.0,0 STARLINK-3301,1 50169U 21125P   23047.87303307  .00001984  00000-0  14266-3 0  9993,2 50169  53.2142 222.7015 0001178  78.5206 281.5919 15.08847694 68005,6917.857,95.437,540.537,538.907,0.0
50169.0,STARLINK-3301,PAYLOAD,2023-02-17 11:15:38,15.08838577,0.0001485,53.2171,220.0281,77.3688,282.747,2.2475e-05,7e-07,0.0,0 STARLINK-3301,1 50169U 21125P   23048.46919883  .00000070  00000-0  22475-4 0  9998,2 50169  53.2171 220.0281 0001485  77.3688 282.7470 15.08838577 65007,6917.885,95.438,540.777,538.722,0.0
50169.0,STARLINK-3301,PAYLOAD,2023-02-17 20:47:57,15.08840832,0.0001221,53.2168,218.2417,85.5068,274.6063,6.3658e-05,7.25e-06,0.0,0 STARLINK-3301,1 50169U 21125P   23048.86663840  .00000725  00000-0  63658-4 0  9996,2 50169  53.2168 218.2417 0001221  85.5068 274.6063 15.08840832 68158,6917.878,95.438,540.588,538.898,0.0
50169.0,STARLINK-3301,PAYLOAD,2023-02-18 11:06:26,15.08836384,0.0001198,53.2153,215.5674,68.7835,291.3285,8.5793e-05,1.078e-05,0.0,0 STARLINK-3301,1 50169U 21125P   23049.46280147  .00001078  00000-0  85793-4 0  9994,2 50169  53.2153 215.5674 0001198  68.7835 291.3285 15.08836384 68244,6917.891,95.438,540.585,538.928,0.0
50169.0,STARLINK-3301,PAYLOAD,2023-02-18 20:38:44,15.08846456,0.0001124,53.2162,213.7806,85.1297,274.9824,0.00024701,3.646e-05,0.0,0 STARLINK-3301,1 50169U 21125P   23049.86023666  .00003646  00000-0  24701-3 0  9993,2 50169  53.2162 213.7806 0001124  85.1297 274.9824 15.08846456 65216,6917.861,95.437,540.503,538.948,0.0
50169.0,STARLINK-3301,PAYLOAD,2023-02-19 14:08:00,15.0882969,0.0001106,53.2166,210.5098,83.0975,277.0143,4.1134e-05,3.67e-06,0.0,0 STARLINK-3301,1 50169U 21125P   23050.58889028  .00000367  00000-0  41134-4 0  9993,2 50169  53.2166 210.5098 0001106  83.0975 277.0143 15.08829690 68412,6917.912,95.438,540.542,539.012,0.0
50169.0,STARLINK-3301,PAYLOAD,2023-02-19 15:43:23,15.088325,0.0001036,53.2161,210.2118,82.6046,277.5064,8.6993e-05,1.097e-05,0.0,0 STARLINK-3301,1 50169U 21125P   23050.65512914  .00001097  00000-0  86993-4 0  9991,2 50169  53.2161 210.2118 0001036  82.6046 277.5064 15.08832500 65332,6917.903,95.438,540.485,539.052,0.0
50169.0,STARLINK-3301,PAYLOAD,2023-02-19 22:04:55,15.08842664,9.42e-05,53.216,209.022,90.6833,269.4267,0.0007529,0.00011716,0.0,0 STARLINK-3301,1 50169U 21125P   23050.92008823  .00011716  00000-0  75290-3 0  9996,2 50169  53.2160 209.0220 0000942  90.6833 269.4267 15.08842664 65370,6917.872,95.437,540.389,539.086,0.0
50169.0,STARLINK-3301,PAYLOAD,2023-02-20 13:58:46,15.08867478,9.19e-05,53.2165,206.0485,91.3158,268.794,0.0012508,0.00019689,0.0,0 STARLINK-3301,1 50169U 21125P   23051.58248232  .00019689  00000-0  12508-2 0  9998,2 50169  53.2165 206.0485 0000919  91.3158 268.7940 15.08867478 68561,6917.796,95.436,540.297,539.026,0.0
50169.0,STARLINK-3301,PAYLOAD,2023-02-20 21:55:41,15.08885049,8.78e-05,53.2166,204.5618,85.2591,274.8501,0.0014061,0.00022189,0.0,0 STARLINK-3301,1 50169U 21125P   23051.91367346  .00022189  00000-0  14061-2 0  9998,2 50169  53.2166 204.5618 0000878  85.2591 274.8501 15.08885049 65528,6917.743,95.435,540.215,539.0,0.0
50169.0,STARLINK-3301,PAYLOAD,2023-02-21 10:38:46,15.08847571,7.3e-05,53.2167,202.1827,103.8109,256.2964,0.00061352,9.492e-05,0.0,0 STARLINK-3301,1 50169U 21125P   23052.44359736  .00009492  00000-0  61352-3 0  9999,2 50169  53.2167 202.1827 0000730 103.8109 256.2964 15.08847571 65608,6917.857,95.437,540.227,539.217,0.0
50169.0,STARLINK-3301,PAYLOAD,2023-02-21 20:11:05,15.08856883,9.88e-05,53.2167,200.3994,100.5918,259.5186,0.0014673,0.00023152,0.0,0 STARLINK-3301,1 50169U 21125P   23052.84103486  .00023152  00000-0  14673-2 0  9994,2 50169  53.2167 200.3994 0000988 100.5918 259.5186 15.08856883 68757,6917.829,95.436,540.377,539.01,0.0
50169.0,STARLINK-3301,PAYLOAD,2023-02-22 02:32:38,15.08835018,0.0001701,53.2167,199.2091,84.3573,275.7613,0.0016197,0.0002558,0.0,0 STARLINK-3301,1 50169U 21125P   23053.10599866  .00025580  00000-0  16197-2 0  9995,2 50169  53.2167 199.2091 0001701  84.3573 275.7613 15.08835018 65705,6917.896,95.438,540.937,538.584,0.0
50169.0,STARLINK-3301,PAYLOAD,2023-02-22 18:26:29,15.08842051,9.74e-05,53.2166,196.2363,81.2271,278.8831,0.0011079,0.00017389,0.0,0 STARLINK-3301,1 50169U 21125P   23053.76839930  .00017389  00000-0  11079-2 0  9998,2 50169  53.2166 196.2363 0000974  81.2271 278.8831 15.08842051 65807,6917.874,95.437,540.413,539.065,0.0
50169.0,STARLINK-3301,PAYLOAD,2023-02-22 21:37:16,15.08835764,0.0001758,53.2168,195.6417,76.8821,283.2367,0.00041501,6.322e-05,0.0,0 STARLINK-3301,1 50169U 21125P   23053.90088285  .00006322  00000-0  41501-3 0  9992,2 50169  53.2168 195.6417 0001758  76.8821 283.2367 15.08835764 65823,6917.893,95.438,540.975,538.542,0.0
50169.0,STARLINK-3301,PAYLOAD,2023-02-23 10:20:20,15.088342,6.04e-05,53.2158,193.2629,73.1752,286.9307,0.00019715,2.851e-05,0.0,0 STARLINK-3301,1 50169U 21125P   23054.43079841  .00002851  00000-0  19715-3 0  9994,2 50169  53.2158 193.2629 0000604  73.1752 286.9307 15.08834200 68992,6917.898,95.438,540.181,539.345,0.0
50169.0,STARLINK-3301,PAYLOAD,2023-02-23 15:06:30,15.08852182,0.0001132,53.2159,192.37,92.1417,267.9705,0.00075026,0.00011677,0.0,0 STARLINK-3301,1 50169U 21125P   23054.62952068  .00011677  00000-0  75026-3 0  9999,2 50169  53.2159 192.3700 0001132  92.1417 267.9705 15.08852182 69024,6917.843,95.437,540.491,538.925,0.0
50169.0,STARLINK-3301,PAYLOAD,2023-02-24 14:57:17,15.08839051,0.0001148,53.2165,187.9081,99.8949,260.2173,0.0012799,0.0002014,0.0,0 STARLINK-3301,1 50169U 21125P   23055.62312427  .00020140  00000-0  12799-2 0  9991,2 50169  53.2165 187.9081 0001148  99.8949 260.2173 15.08839051 66082,6917.883,95.438,540.542,538.954,0.0
50169.0,STARLINK-3301,PAYLOAD,2023-02-24 21:18:50,15.0884979,0.0001271,53.2176,186.7172,74.5839,285.5293,0.0012577,0.0001979,0.0,0 STARLINK-3301,1 50169U 21125P   23055.88808408  .00019790  00000-0  12577-2 0  9991,2 50169  53.2176 186.7172 0001271  74.5839 285.5293 15.08849790 69219,6917.85,95.437,540.595,538.836,0.0
50169.0,STARLINK-3301,PAYLOAD,2023-02-25 02:04:59,15.08826769,2.72e-05,53.217,185.8272,166.7922,193.3077,-6.0598e-05,-1.251e-05,0.0,0 STARLINK-3301,1 50169U 21125P   23056.08680511 -.00001251  00000-0 -60598-4 0  9990,2 50169  53.2170 185.8272 0000272 166.7922 193.3077 15.08826769 66158,6917.921,95.438,539.974,539.598,0.0
50169.0,STARLINK-3301,PAYLOAD,2023-02-25 13:12:42,15.08830766,7.66e-05,53.216,183.7465,78.6828,281.425,0.0012097,0.00019012,0.0,0 STARLINK-3301,1 50169U 21125P   23056.55049307  .00019012  00000-0  12097-2 0  9995,2 50169  53.2160 183.7465 0000766  78.6828 281.4250 15.08830766 69317,6917.909,95.438,540.304,539.244,0.0
50169.0,STARLINK-3301,PAYLOAD,2023-02-25 14:48:05,15.0883627,0.0001001,53.216,183.4489,77.99,282.1204,0.00157,0.00024784,0.0,0 STARLINK-3301,1 50169U 21125P   23056.61673358  .00024784  00000-0  15700-2 0  9997,2 50169  53.2160 183.4489 0001001  77.9900 282.1204 15.08836270 66237,6917.892,95.438,540.449,539.064,0.0
50169.0,STARLINK-3301,PAYLOAD,2023-02-25 19:34:15,15.08849204,9.75e-05,53.216,182.5563,80.6977,279.4125,0.0020112,0.00031873,0.0,0 STARLINK-3301,1 50169U 21125P   23056.81545304  .00031873  00000-0  20112-2 0  9998,2 50169  53.2160 182.5563 0000975  80.6977 279.4125 15.08849204 69352,6917.852,95.437,540.392,539.043,0.0
